{"type": "FeatureCollection", "features": [ {"type": "Feature", "properties": {"norad_id": 33825, "name": "COSMOS 2251 DEB", "group": "cosmos-2251-debris", "lat": -33.754683996464266, "lon": -10.963829619672678, "alt_km": 607.2577053200739, "timestamp": "2025-12-26T23:26:42.516685+00:00", "meta": {"OBJECT_NAME": "COSMOS 2251 DEB", "OBJECT_ID": "1993-036BS", "EPOCH": "2025-12-26T17:52:13.560960", "MEAN_MOTION": 14.69910979, "ECCENTRICITY": 0.0085128, "INCLINATION": 73.9853, "RA_OF_ASC_NODE": 0.554, "ARG_OF_PERICENTER": 324.3987, "MEAN_ANOMALY": 211.728, "EPHEMERIS_TYPE": 0, "CLASSIFICATION_TYPE": "U", "NORAD_CAT_ID": 33825, "ELEMENT_SET_NO": 999, "REV_AT_EPOCH": 89085, "BSTAR": 0.0012086, "MEAN_MOTION_DOT": 7.622e-05, "MEAN_MOTION_DDOT": 0}, "tle": {"line1": "1 33825U 93036BS  25360.74460140  .00007622  00000+0  12086-2 0  9999", "line2": "2 33825  73.9853   0.5540 0085128 324.3987 211.7280 14.69910979890858"}}, "geometry": {"type": "Point", "coordinates": [-10.963829619672678, -33.754683996464266]}}, {"type": "Feature", "properties": {"norad_id": 33826, "name": "COSMOS 2251 DEB", "group": "cosmos-2251-debris", "lat": 7.667969372358697, "lon": 25.313578359572652, "alt_km": 687.1410254200937, "timestamp": "2025-12-26T23:26:42.516696+00:00", "meta": {"OBJECT_NAME": "COSMOS 2251 DEB", "OBJECT_ID": "1993-036BT", "EPOCH": "2025-12-26T10:43:14.236320", "MEAN_MOTION": 14.51778923, "ECCENTRICITY": 0.0082523, "INCLINATION": 74.0641, "RA_OF_ASC_NODE": 24.1054, "ARG_OF_PERICENTER": 63.8003, "MEAN_ANOMALY": 55.2102, "EPHEMERIS_TYPE": 0, "CLASSIFICATION_TYPE": "U", "NORAD_CAT_ID": 33826, "ELEMENT_SET_NO": 999, "REV_AT_EPOCH": 87968, "BSTAR": 0.00046965, "MEAN_MOTION_DOT": 1.945e-05, "MEAN_MOTION_DDOT": 0}, "tle": {"line1": "1 33826U 93036BT  25360.44669255  .00001945  00000+0  46965-3 0  9991", "line2": "2 33826  74.0641  24.1054 0082523  63.8003  55.2102 14.51778923879682"}}, "geometry": {"type": "Point", "coordinates": [25.313578359572652, 7.667969372358697]}}, {"type": "Feature", "properties": {"norad_id": 33828, "name": "COSMOS 2251 DEB", "group": "cosmos-2251-debris", "lat": -61.80463625635773, "lon": 63.8680327945857, "alt_km": 733.8601831120095, "timestamp": "2025-12-26T23:26:42.516705+00:00", "meta": {"OBJECT_NAME": "COSMOS 2251 DEB", "OBJECT_ID": "1993-036BV", "EPOCH": "2025-12-26T14:05:42.199872", "MEAN_MOTION": 14.44371496, "ECCENTRICITY": 0.0029517, "INCLINATION": 74.0447, "RA_OF_ASC_NODE": 212.3396, "ARG_OF_PERICENTER": 283.1452, "MEAN_ANOMALY": 98.5213, "EPHEMERIS_TYPE": 0, "CLASSIFICATION_TYPE": "U", "NORAD_CAT_ID": 33828, "ELEMENT_SET_NO": 999, "REV_AT_EPOCH": 88513, "BSTAR": 0.0004039, "MEAN_MOTION_DOT": 1.372e-05, "MEAN_MOTION_DDOT": 0}, "tle": {"line1": "1 33828U 93036BV  25360.58729398  .00001372  00000+0  40390-3 0  9993", "line2": "2 33828  74.0447 212.3396 0029517 283.1452  98.5213 14.44371496885133"}}, "geometry": {"type": "Point", "coordinates": [63.8680327945857, -61.80463625635773]}}, {"type": "Feature", "properties": {"norad_id": 33830, "name": "COSMOS 2251 DEB", "group": "cosmos-2251-debris", "lat": -7.664667710501372, "lon": -159.75874766030236, "alt_km": 616.906287621633, "timestamp": "2025-12-26T23:26:42.516715+00:00", "meta": {"OBJECT_NAME": "COSMOS 2251 DEB", "OBJECT_ID": "1993-036BX", "EPOCH": "2025-12-26T15:37:57.910944", "MEAN_MOTION": 14.77042271, "ECCENTRICITY": 0.0042806, "INCLINATION": 74.031, "RA_OF_ASC_NODE": 203.0879, "ARG_OF_PERICENTER": 320.3222, "MEAN_ANOMALY": 101.3939, "EPHEMERIS_TYPE": 0, "CLASSIFICATION_TYPE": "U", "NORAD_CAT_ID": 33830, "ELEMENT_SET_NO": 999, "REV_AT_EPOCH": 89677, "BSTAR": 0.00075875, "MEAN_MOTION_DOT": 5.404e-05, "MEAN_MOTION_DDOT": 0}, "tle": {"line1": "1 33830U 93036BX  25360.65136471  .00005404  00000+0  75875-3 0  9994", "line2": "2 33830  74.0310 203.0879 0042806 320.3222 101.3939 14.77042271896775"}}, "geometry": {"type": "Point", "coordinates": [-159.75874766030236, -7.664667710501372]}}, {"type": "Feature", "properties": {"norad_id": 33832, "name": "COSMOS 2251 DEB", "group": "cosmos-2251-debris", "lat": -64.28103138578214, "lon": 146.39287343074614, "alt_km": 694.20491490534, "timestamp": "2025-12-26T23:26:42.516724+00:00", "meta": {"OBJECT_NAME": "COSMOS 2251 DEB", "OBJECT_ID": "1993-036BZ", "EPOCH": "2025-12-26T18:55:07.192416", "MEAN_MOTION": 14.60816233, "ECCENTRICITY": 0.0023961, "INCLINATION": 74.0533, "RA_OF_ASC_NODE": 183.1664, "ARG_OF_PERICENTER": 211.5961, "MEAN_ANOMALY": 167.1735, "EPHEMERIS_TYPE": 0, "CLASSIFICATION_TYPE": "U", "NORAD_CAT_ID": 33832, "ELEMENT_SET_NO": 999, "REV_AT_EPOCH": 88630, "BSTAR": 0.0015386, "MEAN_MOTION_DOT": 7.525e-05, "MEAN_MOTION_DDOT": 0}, "tle": {"line1": "1 33832U 93036BZ  25360.78827769  .00007525  00000+0  15386-2 0  9993", "line2": "2 33832  74.0533 183.1664 0023961 211.5961 167.1735 14.60816233886307"}}, "geometry": {"type": "Point", "coordinates": [146.39287343074614, -64.28103138578214]}}, {"type": "Feature", "properties": {"norad_id": 33835, "name": "COSMOS 2251 DEB", "group": "cosmos-2251-debris", "lat": -26.43743682750455, "lon": -97.95274855293943, "alt_km": 686.8914959955437, "timestamp": "2025-12-26T23:26:42.516743+00:00", "meta": {"OBJECT_NAME": "COSMOS 2251 DEB", "OBJECT_ID": "1993-036CC", "EPOCH": "2025-12-26T16:39:54.907200", "MEAN_MOTION": 14.62381022, "ECCENTRICITY": 0.0053624, "INCLINATION": 74.0572, "RA_OF_ASC_NODE": 74.4162, "ARG_OF_PERICENTER": 123.7769, "MEAN_ANOMALY": 36.4827, "EPHEMERIS_TYPE": 0, "CLASSIFICATION_TYPE": "U", "NORAD_CAT_ID": 33835, "ELEMENT_SET_NO": 999, "REV_AT_EPOCH": 88993, "BSTAR": 0.00089336, "MEAN_MOTION_DOT": 4.583e-05, "MEAN_MOTION_DDOT": 0}, "tle": {"line1": "1 33835U 93036CC  25360.69438550  .00004583  00000+0  89336-3 0  9990", "line2": "2 33835  74.0572  74.4162 0053624 123.7769  36.4827 14.62381022889934"}}, "geometry": {"type": "Point", "coordinates": [-97.95274855293943, -26.43743682750455]}}, {"type": "Feature", "properties": {"norad_id": 33836, "name": "COSMOS 2251 DEB", "group": "cosmos-2251-debris", "lat": 40.51164975195497, "lon": -114.95139608960004, "alt_km": 613.2538407488628, "timestamp": "2025-12-26T23:26:42.516752+00:00", "meta": {"OBJECT_NAME": "COSMOS 2251 DEB", "OBJECT_ID": "1993-036CD", "EPOCH": "2025-12-26T15:16:49.328256", "MEAN_MOTION": 14.79849474, "ECCENTRICITY": 0.002294, "INCLINATION": 73.9962, "RA_OF_ASC_NODE": 231.5244, "ARG_OF_PERICENTER": 79.4405, "MEAN_ANOMALY": 311.6709, "EPHEMERIS_TYPE": 0, "CLASSIFICATION_TYPE": "U", "NORAD_CAT_ID": 33836, "ELEMENT_SET_NO": 999, "REV_AT_EPOCH": 64294, "BSTAR": 0.0010826, "MEAN_MOTION_DOT": 8.173e-05, "MEAN_MOTION_DDOT": 0}, "tle": {"line1": "1 33836U 93036CD  25360.63668204  .00008173  00000+0  10826-2 0  9992", "line2": "2 33836  73.9962 231.5244 0022940  79.4405 311.6709 14.79849474642947"}}, "geometry": {"type": "Point", "coordinates": [-114.95139608960004, 40.51164975195497]}}, {"type": "Feature", "properties": {"norad_id": 33837, "name": "COSMOS 2251 DEB", "group": "cosmos-2251-debris", "lat": -23.126944536525112, "lon": 21.7596541793581, "alt_km": 727.2692841597336, "timestamp": "2025-12-26T23:26:42.516762+00:00", "meta": {"OBJECT_NAME": "COSMOS 2251 DEB", "OBJECT_ID": "1993-036CE", "EPOCH": "2025-12-26T11:58:15.849120", "MEAN_MOTION": 14.50729517, "ECCENTRICITY": 0.0035863, "INCLINATION": 74.0121, "RA_OF_ASC_NODE": 29.6929, "ARG_OF_PERICENTER": 249.2411, "MEAN_ANOMALY": 110.4906, "EPHEMERIS_TYPE": 0, "CLASSIFICATION_TYPE": "U", "NORAD_CAT_ID": 33837, "ELEMENT_SET_NO": 999, "REV_AT_EPOCH": 88995, "BSTAR": 0.00025962, "MEAN_MOTION_DOT": 1.001e-05, "MEAN_MOTION_DDOT": 0}, "tle": {"line1": "1 33837U 93036CE  25360.49879455  .00001001  00000+0  25962-3 0  9990", "line2": "2 33837  74.0121  29.6929 0035863 249.2411 110.4906 14.50729517889957"}}, "geometry": {"type": "Point", "coordinates": [21.7596541793581, -23.126944536525112]}}, {"type": "Feature", "properties": {"norad_id": 33838, "name": "COSMOS 2251 DEB", "group": "cosmos-2251-debris", "lat": 73.95842247254319, "lon": -152.28942046620463, "alt_km": 741.0601166638162, "timestamp": "2025-12-26T23:26:42.516771+00:00", "meta": {"OBJECT_NAME": "COSMOS 2251 DEB", "OBJECT_ID": "1993-036CF", "EPOCH": "2025-12-26T18:37:13.288800", "MEAN_MOTION": 14.48406829, "ECCENTRICITY": 0.0027458, "INCLINATION": 74.0369, "RA_OF_ASC_NODE": 123.5274, "ARG_OF_PERICENTER": 243.5281, "MEAN_ANOMALY": 237.2969, "EPHEMERIS_TYPE": 0, "CLASSIFICATION_TYPE": "U", "NORAD_CAT_ID": 33838, "ELEMENT_SET_NO": 999, "REV_AT_EPOCH": 88772, "BSTAR": 0.00047359, "MEAN_MOTION_DOT": 1.755e-05, "MEAN_MOTION_DDOT": 0}, "tle": {"line1": "1 33838U 93036CF  25360.77584825  .00001755  00000+0  47359-3 0  9996", "line2": "2 33838  74.0369 123.5274 0027458 243.5281 237.2969 14.48406829887727"}}, "geometry": {"type": "Point", "coordinates": [-152.28942046620463, 73.95842247254319]}}, {"type": "Feature", "properties": {"norad_id": 33839, "name": "COSMOS 2251 DEB", "group": "cosmos-2251-debris", "lat": 58.944918520654646, "lon": -29.25792105216035, "alt_km": 732.2770613364837, "timestamp": "2025-12-26T23:26:42.516781+00:00", "meta": {"OBJECT_NAME": "COSMOS 2251 DEB", "OBJECT_ID": "1993-036CG", "EPOCH": "2025-12-25T12:37:08.860800", "MEAN_MOTION": 14.64450648, "ECCENTRICITY": 0.0085374, "INCLINATION": 74.0373, "RA_OF_ASC_NODE": 181.9107, "ARG_OF_PERICENTER": 291.0826, "MEAN_ANOMALY": 99.0176, "EPHEMERIS_TYPE": 0, "CLASSIFICATION_TYPE": "U", "NORAD_CAT_ID": 33839, "ELEMENT_SET_NO": 999, "REV_AT_EPOCH": 89767, "BSTAR": 0.00022045, "MEAN_MOTION_DOT": 1.196e-05, "MEAN_MOTION_DDOT": 0}, "tle": {"line1": "1 33839U 93036CG  25359.52579700  .00001196  00000+0  22045-3 0  9998", "line2": "2 33839  74.0373 181.9107 0085374 291.0826  99.0176 14.64450648897675"}}, "geometry": {"type": "Point", "coordinates": [-29.25792105216035, 58.944918520654646]}}]}